STARLINK-35687          
1 66524U 25265J   25342.58335648 -.02070179  00000+0 -31952-1 0  9999
2 66524  43.0004  78.3260 0001318 281.4187  27.6561 15.56463884  4322
STARLINK-35975          
1 66525U 25265K   25342.58335648 -.02071233  00000+0 -31971-1 0  9993
2 66525  43.0003  78.3214 0001280 280.4265  30.5687 15.56462994  4328
STARLINK-35932          
1 66526U 25265L   25342.58335648 -.02076286  00000+0 -32052-1 0  9998
2 66526  43.0003  78.3166 0001497 282.0164  30.8937 15.56466656  4219
STARLINK-35935          
1 66527U 25265M   25342.58335648 -.02074186  00000+0 -32018-1 0  9998
2 66527  43.0002  78.3120 0001289 276.2132  38.6136 15.56466863  4327
STARLINK-35928          
1 66528U 25265N   25342.58335648 -.02054520  00000+0 -31690-1 0  9994
2 66528  43.0004  78.3072 0001410 279.4601  37.2863 15.56455251  4329
STARLINK-35933          
1 66529U 25265P   25342.58335648 -.02054210  00000+0 -31686-1 0  9996
2 66529  43.0002  78.3023 0001337 279.9237  38.7395 15.56455021  4323
STARLINK-35961          
1 66530U 25265Q   25342.58335648 -.02062405  00000+0 -31820-1 0  9993
2 66530  43.0005  78.2976 0001542 280.0985  40.4820 15.56459399  4320
STARLINK-35960          
1 66531U 25265R   25342.58335648 -.02054596  00000+0 -31691-1 0  9992
2 66531  43.0002  78.2928 0001513 281.9970  40.5007 15.56454655  4325
STARLINK-35914          
1 66532U 25265S   25342.58335648 -.02056981  00000+0 -31730-1 0  9997
2 66532  42.9998  78.2879 0001344 280.7823  43.6297 15.56457845  4328
STARLINK-35707          
1 66533U 25265T   25342.58335648 -.02062571  00000+0 -31822-1 0  9992
2 66533  42.9998  78.2832 0001513 279.8345  46.4956 15.56460384  4329
STARLINK-35976          
1 66534U 25265U   25342.58335648 -.02060194  00000+0 -31783-1 0  9998
2 66534  43.0000  78.2790 0001563 280.8136  47.4350 15.56458186  4320
STARLINK-35514          
1 66535U 25265V   25342.58335648 -.02077220  00000+0 -32068-1 0  9994
2 66535  43.0005  78.2737 0001408 278.0513  52.1124 15.56467978  4324
