CCSDS_OMM_VERS = 2.0
CREATION_DATE  = 
ORIGINATOR     = 

OBJECT_NAME    = STARLINK-35687
OBJECT_ID      = 2025-265J
CENTER_NAME    = EARTH
REF_FRAME      = TEME
TIME_SYSTEM    = UTC
MEAN_ELEMENT_THEORY = SGP/SGP4

EPOCH          = 2025-12-08T14:00:01.999872
MEAN_MOTION    = 15.56463884
ECCENTRICITY   = .00013182
INCLINATION    = 43.0004
RA_OF_ASC_NODE = 78.3260
ARG_OF_PERICENTER = 281.4187
MEAN_ANOMALY   = 27.6561

EPHEMERIS_TYPE = 0
CLASSIFICATION_TYPE = U
NORAD_CAT_ID   = 66524
ELEMENT_SET_NO = 999
REV_AT_EPOCH   = 432
BSTAR          = -.31951598E-1
MEAN_MOTION_DOT = -.2070179E-1
MEAN_MOTION_DDOT = 0

CCSDS_OMM_VERS = 2.0
CREATION_DATE  = 
ORIGINATOR     = 

OBJECT_NAME    = STARLINK-35975
OBJECT_ID      = 2025-265K
CENTER_NAME    = EARTH
REF_FRAME      = TEME
TIME_SYSTEM    = UTC
MEAN_ELEMENT_THEORY = SGP/SGP4

EPOCH          = 2025-12-08T14:00:01.999872
MEAN_MOTION    = 15.56462994
ECCENTRICITY   = .00012809
INCLINATION    = 43.0003
RA_OF_ASC_NODE = 78.3214
ARG_OF_PERICENTER = 280.4265
MEAN_ANOMALY   = 30.5687

EPHEMERIS_TYPE = 0
CLASSIFICATION_TYPE = U
NORAD_CAT_ID   = 66525
ELEMENT_SET_NO = 999
REV_AT_EPOCH   = 432
BSTAR          = -.31971336E-1
MEAN_MOTION_DOT = -.2071233E-1
MEAN_MOTION_DDOT = 0

CCSDS_OMM_VERS = 2.0
CREATION_DATE  = 
ORIGINATOR     = 

OBJECT_NAME    = STARLINK-35932
OBJECT_ID      = 2025-265L
CENTER_NAME    = EARTH
REF_FRAME      = TEME
TIME_SYSTEM    = UTC
MEAN_ELEMENT_THEORY = SGP/SGP4

EPOCH          = 2025-12-08T14:00:01.999872
MEAN_MOTION    = 15.56466656
ECCENTRICITY   = .00014974
INCLINATION    = 43.0003
RA_OF_ASC_NODE = 78.3166
ARG_OF_PERICENTER = 282.0164
MEAN_ANOMALY   = 30.8937

EPHEMERIS_TYPE = 0
CLASSIFICATION_TYPE = U
NORAD_CAT_ID   = 66526
ELEMENT_SET_NO = 999
REV_AT_EPOCH   = 421
BSTAR          = -.32051966E-1
MEAN_MOTION_DOT = -.2076286E-1
MEAN_MOTION_DDOT = 0

CCSDS_OMM_VERS = 2.0
CREATION_DATE  = 
ORIGINATOR     = 

OBJECT_NAME    = STARLINK-35935
OBJECT_ID      = 2025-265M
CENTER_NAME    = EARTH
REF_FRAME      = TEME
TIME_SYSTEM    = UTC
MEAN_ELEMENT_THEORY = SGP/SGP4

EPOCH          = 2025-12-08T14:00:01.999872
MEAN_MOTION    = 15.56466863
ECCENTRICITY   = .00012899
INCLINATION    = 43.0002
RA_OF_ASC_NODE = 78.3120
ARG_OF_PERICENTER = 276.2132
MEAN_ANOMALY   = 38.6136

EPHEMERIS_TYPE = 0
CLASSIFICATION_TYPE = U
NORAD_CAT_ID   = 66527
ELEMENT_SET_NO = 999
REV_AT_EPOCH   = 432
BSTAR          = -.32017708E-1
MEAN_MOTION_DOT = -.2074186E-1
MEAN_MOTION_DDOT = 0

CCSDS_OMM_VERS = 2.0
CREATION_DATE  = 
ORIGINATOR     = 

OBJECT_NAME    = STARLINK-35928
OBJECT_ID      = 2025-265N
CENTER_NAME    = EARTH
REF_FRAME      = TEME
TIME_SYSTEM    = UTC
MEAN_ELEMENT_THEORY = SGP/SGP4

EPOCH          = 2025-12-08T14:00:01.999872
MEAN_MOTION    = 15.56455251
ECCENTRICITY   = .00014106
INCLINATION    = 43.0004
RA_OF_ASC_NODE = 78.3072
ARG_OF_PERICENTER = 279.4601
MEAN_ANOMALY   = 37.2863

EPHEMERIS_TYPE = 0
CLASSIFICATION_TYPE = U
NORAD_CAT_ID   = 66528
ELEMENT_SET_NO = 999
REV_AT_EPOCH   = 432
BSTAR          = -.3169008E-1
MEAN_MOTION_DOT = -.205452E-1
MEAN_MOTION_DDOT = 0

CCSDS_OMM_VERS = 2.0
CREATION_DATE  = 
ORIGINATOR     = 

OBJECT_NAME    = STARLINK-35933
OBJECT_ID      = 2025-265P
CENTER_NAME    = EARTH
REF_FRAME      = TEME
TIME_SYSTEM    = UTC
MEAN_ELEMENT_THEORY = SGP/SGP4

EPOCH          = 2025-12-08T14:00:01.999872
MEAN_MOTION    = 15.56455021
ECCENTRICITY   = .00013377
INCLINATION    = 43.0002
RA_OF_ASC_NODE = 78.3023
ARG_OF_PERICENTER = 279.9237
MEAN_ANOMALY   = 38.7395

EPHEMERIS_TYPE = 0
CLASSIFICATION_TYPE = U
NORAD_CAT_ID   = 66529
ELEMENT_SET_NO = 999
REV_AT_EPOCH   = 432
BSTAR          = -.316858E-1
MEAN_MOTION_DOT = -.205421E-1
MEAN_MOTION_DDOT = 0

CCSDS_OMM_VERS = 2.0
CREATION_DATE  = 
ORIGINATOR     = 

OBJECT_NAME    = STARLINK-35961
OBJECT_ID      = 2025-265Q
CENTER_NAME    = EARTH
REF_FRAME      = TEME
TIME_SYSTEM    = UTC
MEAN_ELEMENT_THEORY = SGP/SGP4

EPOCH          = 2025-12-08T14:00:01.999872
MEAN_MOTION    = 15.56459399
ECCENTRICITY   = .00015425
INCLINATION    = 43.0005
RA_OF_ASC_NODE = 78.2976
ARG_OF_PERICENTER = 280.0985
MEAN_ANOMALY   = 40.4820

EPHEMERIS_TYPE = 0
CLASSIFICATION_TYPE = U
NORAD_CAT_ID   = 66530
ELEMENT_SET_NO = 999
REV_AT_EPOCH   = 432
BSTAR          = -.31819958E-1
MEAN_MOTION_DOT = -.2062405E-1
MEAN_MOTION_DDOT = 0

CCSDS_OMM_VERS = 2.0
CREATION_DATE  = 
ORIGINATOR     = 

OBJECT_NAME    = STARLINK-35960
OBJECT_ID      = 2025-265R
CENTER_NAME    = EARTH
REF_FRAME      = TEME
TIME_SYSTEM    = UTC
MEAN_ELEMENT_THEORY = SGP/SGP4

EPOCH          = 2025-12-08T14:00:01.999872
MEAN_MOTION    = 15.56454655
ECCENTRICITY   = .00015133
INCLINATION    = 43.0002
RA_OF_ASC_NODE = 78.2928
ARG_OF_PERICENTER = 281.9970
MEAN_ANOMALY   = 40.5007

EPHEMERIS_TYPE = 0
CLASSIFICATION_TYPE = U
NORAD_CAT_ID   = 66531
ELEMENT_SET_NO = 999
REV_AT_EPOCH   = 432
BSTAR          = -.31690961E-1
MEAN_MOTION_DOT = -.2054596E-1
MEAN_MOTION_DDOT = 0

CCSDS_OMM_VERS = 2.0
CREATION_DATE  = 
ORIGINATOR     = 

OBJECT_NAME    = STARLINK-35914
OBJECT_ID      = 2025-265S
CENTER_NAME    = EARTH
REF_FRAME      = TEME
TIME_SYSTEM    = UTC
MEAN_ELEMENT_THEORY = SGP/SGP4

EPOCH          = 2025-12-08T14:00:01.999872
MEAN_MOTION    = 15.56457845
ECCENTRICITY   = .00013449
INCLINATION    = 42.9998
RA_OF_ASC_NODE = 78.2879
ARG_OF_PERICENTER = 280.7823
MEAN_ANOMALY   = 43.6297

EPHEMERIS_TYPE = 0
CLASSIFICATION_TYPE = U
NORAD_CAT_ID   = 66532
ELEMENT_SET_NO = 999
REV_AT_EPOCH   = 432
BSTAR          = -.31730245E-1
MEAN_MOTION_DOT = -.2056981E-1
MEAN_MOTION_DDOT = 0

CCSDS_OMM_VERS = 2.0
CREATION_DATE  = 
ORIGINATOR     = 

OBJECT_NAME    = STARLINK-35707
OBJECT_ID      = 2025-265T
CENTER_NAME    = EARTH
REF_FRAME      = TEME
TIME_SYSTEM    = UTC
MEAN_ELEMENT_THEORY = SGP/SGP4

EPOCH          = 2025-12-08T14:00:01.999872
MEAN_MOTION    = 15.56460384
ECCENTRICITY   = .00015139
INCLINATION    = 42.9998
RA_OF_ASC_NODE = 78.2832
ARG_OF_PERICENTER = 279.8345
MEAN_ANOMALY   = 46.4956

EPHEMERIS_TYPE = 0
CLASSIFICATION_TYPE = U
NORAD_CAT_ID   = 66533
ELEMENT_SET_NO = 999
REV_AT_EPOCH   = 432
BSTAR          = -.31821945E-1
MEAN_MOTION_DOT = -.2062571E-1
MEAN_MOTION_DDOT = 0

CCSDS_OMM_VERS = 2.0
CREATION_DATE  = 
ORIGINATOR     = 

OBJECT_NAME    = STARLINK-35976
OBJECT_ID      = 2025-265U
CENTER_NAME    = EARTH
REF_FRAME      = TEME
TIME_SYSTEM    = UTC
MEAN_ELEMENT_THEORY = SGP/SGP4

EPOCH          = 2025-12-08T14:00:01.999872
MEAN_MOTION    = 15.56458186
ECCENTRICITY   = .00015633
INCLINATION    = 43.0000
RA_OF_ASC_NODE = 78.2790
ARG_OF_PERICENTER = 280.8136
MEAN_ANOMALY   = 47.4350

EPHEMERIS_TYPE = 0
CLASSIFICATION_TYPE = U
NORAD_CAT_ID   = 66534
ELEMENT_SET_NO = 999
REV_AT_EPOCH   = 432
BSTAR          = -.31782921E-1
MEAN_MOTION_DOT = -.2060194E-1
MEAN_MOTION_DDOT = 0

CCSDS_OMM_VERS = 2.0
CREATION_DATE  = 
ORIGINATOR     = 

OBJECT_NAME    = STARLINK-35514
OBJECT_ID      = 2025-265V
CENTER_NAME    = EARTH
REF_FRAME      = TEME
TIME_SYSTEM    = UTC
MEAN_ELEMENT_THEORY = SGP/SGP4

EPOCH          = 2025-12-08T14:00:01.999872
MEAN_MOTION    = 15.56467978
ECCENTRICITY   = .00014081
INCLINATION    = 43.0005
RA_OF_ASC_NODE = 78.2737
ARG_OF_PERICENTER = 278.0513
MEAN_ANOMALY   = 52.1124

EPHEMERIS_TYPE = 0
CLASSIFICATION_TYPE = U
NORAD_CAT_ID   = 66535
ELEMENT_SET_NO = 999
REV_AT_EPOCH   = 432
BSTAR          = -.32067574E-1
MEAN_MOTION_DOT = -.207722E-1
MEAN_MOTION_DDOT = 0

